start=new Date('2022-03-22T00:00:00.000Z').valueOf();
sats=[{"MEAN_ANOMALY":"54.3905","MEAN_MOTION_DDOT":"0.0000000000000","GP_ID":"199351120","PERIOD":"91.536","EPHEMERIS_TYPE":"0","SITE":"AFETR","OBJECT_ID":"2022-022G","LAUNCH_DATE":"2022-03-03","FILE":"3368836","MEAN_MOTION_DOT":"0.00070771","TIME_SYSTEM":"UTC","NORAD_CAT_ID":"51858","ECCENTRICITY":"0.00011930","TLE_LINE2":"2 51858  53.2197  53.5487 0001193  73.2793  54.3905 15.73146410  3532","OBJECT_NAME":"STARLINK-3563","BSTAR":"0.00050558000000","DECAY_DATE":null,"OBJECT_TYPE":"PAYLOAD","CLASSIFICATION_TYPE":"U","CENTER_NAME":"EARTH","ARG_OF_PERICENTER":"73.2793","PERIAPSIS":"349.110","APOAPSIS":"350.716","TLE_LINE1":"1 51858U 22022G   22080.91667824  .00070771  00000-0  50558-3 0  9998","SEMIMAJOR_AXIS":"6728.048","RCS_SIZE":"LARGE","COUNTRY_CODE":"US","EPOCH":"2022-03-21T22:00:00.999936","RA_OF_ASC_NODE":"53.5487","MEAN_MOTION":"15.73146410","ELEMENT_SET_NO":"999","REV_AT_EPOCH":"353","REF_FRAME":"TEME","MEAN_ELEMENT_THEORY":"SGP4","INCLINATION":"53.2197"},{"TLE_LINE1":"1 51859U 22022H   22080.91667824  .00056661  00000-0  40684-3 0  9990","APOAPSIS":"350.659","PERIAPSIS":"349.331","ARG_OF_PERICENTER":"79.3928","CENTER_NAME":"EARTH","INCLINATION":"53.2191","REF_FRAME":"TEME","MEAN_ELEMENT_THEORY":"SGP4","ELEMENT_SET_NO":"999","REV_AT_EPOCH":"354","MEAN_MOTION":"15.73117525","RA_OF_ASC_NODE":"53.5446","EPOCH":"2022-03-21T22:00:00.999936","COUNTRY_CODE":"US","RCS_SIZE":"LARGE","SEMIMAJOR_AXIS":"6728.130","FILE":"3368836","OBJECT_ID":"2022-022H","LAUNCH_DATE":"2022-03-03","SITE":"AFETR","EPHEMERIS_TYPE":"0","PERIOD":"91.538","GP_ID":"199351340","MEAN_MOTION_DDOT":"0.0000000000000","MEAN_ANOMALY":"50.8961","CLASSIFICATION_TYPE":"U","OBJECT_TYPE":"PAYLOAD","DECAY_DATE":null,"BSTAR":"0.00040684000000","OBJECT_NAME":"STARLINK-3560","TLE_LINE2":"2 51859  53.2191  53.5446 0000987  79.3928  50.8961 15.73117525  3548","ECCENTRICITY":"0.00009870","NORAD_CAT_ID":"51859","TIME_SYSTEM":"UTC","MEAN_MOTION_DOT":"0.00056661"},{"APOAPSIS":"350.683","PERIAPSIS":"349.229","TLE_LINE1":"1 51860U 22022J   22080.91667824  .00069130  00000-0  49438-3 0  9993","ARG_OF_PERICENTER":"67.5854","CENTER_NAME":"EARTH","INCLINATION":"53.2198","ELEMENT_SET_NO":"999","REV_AT_EPOCH":"355","REF_FRAME":"TEME","MEAN_ELEMENT_THEORY":"SGP4","MEAN_MOTION":"15.73131326","RA_OF_ASC_NODE":"53.5463","RCS_SIZE":"LARGE","COUNTRY_CODE":"US","SEMIMAJOR_AXIS":"6728.091","EPOCH":"2022-03-21T22:00:00.999936","FILE":"3368836","SITE":"AFETR","EPHEMERIS_TYPE":"0","LAUNCH_DATE":"2022-03-03","OBJECT_ID":"2022-022J","MEAN_MOTION_DDOT":"0.0000000000000","MEAN_ANOMALY":"61.3555","PERIOD":"91.537","GP_ID":"199351559","OBJECT_TYPE":"PAYLOAD","BSTAR":"0.00049438000000","DECAY_DATE":null,"CLASSIFICATION_TYPE":"U","OBJECT_NAME":"STARLINK-3559","TLE_LINE2":"2 51860  53.2198  53.5463 0001080  67.5854  61.3555 15.73131326  3550","TIME_SYSTEM":"UTC","MEAN_MOTION_DOT":"0.00069130","ECCENTRICITY":"0.00010800","NORAD_CAT_ID":"51860"},{"CENTER_NAME":"EARTH","ARG_OF_PERICENTER":"74.9313","TLE_LINE1":"1 51861U 22022K   22080.91667824  .00068067  00000-0  48739-3 0  9995","APOAPSIS":"350.754","PERIAPSIS":"349.292","EPOCH":"2022-03-21T22:00:00.999936","COUNTRY_CODE":"US","RCS_SIZE":"LARGE","SEMIMAJOR_AXIS":"6728.158","MEAN_MOTION":"15.73107794","RA_OF_ASC_NODE":"53.5423","REF_FRAME":"TEME","MEAN_ELEMENT_THEORY":"SGP4","REV_AT_EPOCH":"353","ELEMENT_SET_NO":"999","INCLINATION":"53.2189","PERIOD":"91.539","GP_ID":"199351890","MEAN_MOTION_DDOT":"0.0000000000000","MEAN_ANOMALY":"56.5698","LAUNCH_DATE":"2022-03-03","OBJECT_ID":"2022-022K","SITE":"AFETR","EPHEMERIS_TYPE":"0","FILE":"3368836","ECCENTRICITY":"0.00010860","NORAD_CAT_ID":"51861","TIME_SYSTEM":"UTC","MEAN_MOTION_DOT":"0.00068067","TLE_LINE2":"2 51861  53.2189  53.5423 0001086  74.9313  56.5698 15.73107794  3539","OBJECT_NAME":"STARLINK-3562","CLASSIFICATION_TYPE":"U","OBJECT_TYPE":"PAYLOAD","DECAY_DATE":null,"BSTAR":"0.00048739000000"},{"OBJECT_ID":"2022-022L","LAUNCH_DATE":"2022-03-03","SITE":"AFETR","EPHEMERIS_TYPE":"0","PERIOD":"91.536","GP_ID":"199299155","MEAN_MOTION_DDOT":"0.0000000000000","MEAN_ANOMALY":"47.7908","FILE":"3368770","TLE_LINE2":"2 51862  53.2196  53.5448 0001311  81.7944  47.7908 15.73144740  4148","ECCENTRICITY":"0.00013110","NORAD_CAT_ID":"51862","TIME_SYSTEM":"UTC","MEAN_MOTION_DOT":"0.00071102","CLASSIFICATION_TYPE":"U","OBJECT_TYPE":"PAYLOAD","DECAY_DATE":null,"BSTAR":"0.00050794000000","OBJECT_NAME":"STARLINK-3508","ARG_OF_PERICENTER":"81.7944","CENTER_NAME":"EARTH","TLE_LINE1":"1 51862U 22022L   22080.91667824  .00071102  00000-0  50794-3 0  9994","APOAPSIS":"350.800","PERIAPSIS":"349.036","RA_OF_ASC_NODE":"53.5448","MEAN_MOTION":"15.73144740","EPOCH":"2022-03-21T22:00:00.999936","COUNTRY_CODE":"US","RCS_SIZE":"LARGE","SEMIMAJOR_AXIS":"6728.053","INCLINATION":"53.2196","MEAN_ELEMENT_THEORY":"SGP4","REF_FRAME":"TEME","ELEMENT_SET_NO":"999","REV_AT_EPOCH":"414"},{"APOAPSIS":"350.773","PERIAPSIS":"348.997","TLE_LINE1":"1 51863U 22022M   22080.91667824  .00069649  00000-0  49749-3 0  9996","ARG_OF_PERICENTER":"77.6975","CENTER_NAME":"EARTH","INCLINATION":"53.2191","REV_AT_EPOCH":"357","ELEMENT_SET_NO":"999","MEAN_ELEMENT_THEORY":"SGP4","REF_FRAME":"TEME","RA_OF_ASC_NODE":"53.5398","MEAN_MOTION":"15.73156344","COUNTRY_CODE":"US","RCS_SIZE":"LARGE","SEMIMAJOR_AXIS":"6728.020","EPOCH":"2022-03-21T22:00:00.999936","FILE":"3368836","SITE":"AFETR","EPHEMERIS_TYPE":"0","LAUNCH_DATE":"2022-03-03","OBJECT_ID":"2022-022M","MEAN_MOTION_DDOT":"0.0000000000000","MEAN_ANOMALY":"55.1019","PERIOD":"91.536","GP_ID":"199351670","OBJECT_TYPE":"PAYLOAD","DECAY_DATE":null,"BSTAR":"0.00049749000000","CLASSIFICATION_TYPE":"U","OBJECT_NAME":"STARLINK-3555","TLE_LINE2":"2 51863  53.2191  53.5398 0001320  77.6975  55.1019 15.73156344  3571","TIME_SYSTEM":"UTC","MEAN_MOTION_DOT":"0.00069649","ECCENTRICITY":"0.00013200","NORAD_CAT_ID":"51863"},{"TLE_LINE2":"2 51864  53.2197  53.5431 0001055  73.3736  57.3617 15.73176039  3558","NORAD_CAT_ID":"51864","ECCENTRICITY":"0.00010550","MEAN_MOTION_DOT":"0.00066741","TIME_SYSTEM":"UTC","CLASSIFICATION_TYPE":"U","DECAY_DATE":null,"BSTAR":"0.00047667000000","OBJECT_TYPE":"PAYLOAD","OBJECT_NAME":"STARLINK-3548","OBJECT_ID":"2022-022N","LAUNCH_DATE":"2022-03-03","EPHEMERIS_TYPE":"0","SITE":"AFETR","GP_ID":"199351231","PERIOD":"91.535","MEAN_ANOMALY":"57.3617","MEAN_MOTION_DDOT":"0.0000000000000","FILE":"3368836","RA_OF_ASC_NODE":"53.5431","MEAN_MOTION":"15.73176039","EPOCH":"2022-03-21T22:00:00.999936","SEMIMAJOR_AXIS":"6727.963","RCS_SIZE":"LARGE","COUNTRY_CODE":"US","INCLINATION":"53.2197","REF_FRAME":"TEME","MEAN_ELEMENT_THEORY":"SGP4","ELEMENT_SET_NO":"999","REV_AT_EPOCH":"355","ARG_OF_PERICENTER":"73.3736","CENTER_NAME":"EARTH","TLE_LINE1":"1 51864U 22022N   22080.91667824  .00066741  00000-0  47667-3 0  9994","PERIAPSIS":"349.119","APOAPSIS":"350.538"},{"APOAPSIS":"350.653","PERIAPSIS":"349.165","TLE_LINE1":"1 51865U 22022P   22080.91667824  .00067715  00000-0  48409-3 0  9992","CENTER_NAME":"EARTH","ARG_OF_PERICENTER":"83.0192","REV_AT_EPOCH":"354","ELEMENT_SET_NO":"999","REF_FRAME":"TEME","MEAN_ELEMENT_THEORY":"SGP4","INCLINATION":"53.2196","RCS_SIZE":"LARGE","COUNTRY_CODE":"US","SEMIMAJOR_AXIS":"6728.044","EPOCH":"2022-03-21T22:00:00.999936","MEAN_MOTION":"15.73147877","RA_OF_ASC_NODE":"53.5371","FILE":"3368836","MEAN_MOTION_DDOT":"0.0000000000000","MEAN_ANOMALY":"51.0490","PERIOD":"91.536","GP_ID":"199351781","SITE":"AFETR","EPHEMERIS_TYPE":"0","OBJECT_ID":"2022-022P","LAUNCH_DATE":"2022-03-03","OBJECT_NAME":"STARLINK-3503","OBJECT_TYPE":"PAYLOAD","BSTAR":"0.00048409000000","DECAY_DATE":null,"CLASSIFICATION_TYPE":"U","TIME_SYSTEM":"UTC","MEAN_MOTION_DOT":"0.00067715","ECCENTRICITY":"0.00011060","NORAD_CAT_ID":"51865","TLE_LINE2":"2 51865  53.2196  53.5371 0001106  83.0192  51.0490 15.73147877  3549"},{"TLE_LINE1":"1 51866U 22022Q   22080.91667824  .00067754  00000-0  48470-3 0  9994","APOAPSIS":"350.844","PERIAPSIS":"349.069","ARG_OF_PERICENTER":"74.5837","CENTER_NAME":"EARTH","INCLINATION":"53.2197","REF_FRAME":"TEME","MEAN_ELEMENT_THEORY":"SGP4","REV_AT_EPOCH":"355","ELEMENT_SET_NO":"999","RA_OF_ASC_NODE":"53.5404","MEAN_MOTION":"15.73131221","EPOCH":"2022-03-21T22:00:00.999936","COUNTRY_CODE":"US","RCS_SIZE":"LARGE","SEMIMAJOR_AXIS":"6728.091","FILE":"3368836","LAUNCH_DATE":"2022-03-03","OBJECT_ID":"2022-022Q","SITE":"AFETR","EPHEMERIS_TYPE":"0","PERIOD":"91.537","GP_ID":"199351121","MEAN_MOTION_DDOT":"0.0000000000000","MEAN_ANOMALY":"57.5382","CLASSIFICATION_TYPE":"U","OBJECT_TYPE":"PAYLOAD","DECAY_DATE":null,"BSTAR":"0.00048470000000","OBJECT_NAME":"STARLINK-3553","TLE_LINE2":"2 51866  53.2197  53.5404 0001319  74.5837  57.5382 15.73131221  3553","ECCENTRICITY":"0.00013190","NORAD_CAT_ID":"51866","TIME_SYSTEM":"UTC","MEAN_MOTION_DOT":"0.00067754"},{"FILE":"3368770","PERIOD":"91.537","GP_ID":"199299156","MEAN_MOTION_DDOT":"0.0000000000000","MEAN_ANOMALY":"58.8150","OBJECT_ID":"2022-022R","LAUNCH_DATE":"2022-03-03","SITE":"AFETR","EPHEMERIS_TYPE":"0","OBJECT_NAME":"STARLINK-3590","CLASSIFICATION_TYPE":"U","OBJECT_TYPE":"PAYLOAD","BSTAR":"0.00020735000000","DECAY_DATE":null,"ECCENTRICITY":"0.00008440","NORAD_CAT_ID":"51867","TIME_SYSTEM":"UTC","MEAN_MOTION_DOT":"0.00028500","TLE_LINE2":"2 51867  53.2190  53.5363 0000844  75.8839  58.8150 15.73136748  4095","TLE_LINE1":"1 51867U 22022R   22080.91667824  .00028500  00000-0  20735-3 0  9995","APOAPSIS":"350.508","PERIAPSIS":"349.373","CENTER_NAME":"EARTH","ARG_OF_PERICENTER":"75.8839","MEAN_ELEMENT_THEORY":"SGP4","REF_FRAME":"TEME","ELEMENT_SET_NO":"999","REV_AT_EPOCH":"409","INCLINATION":"53.2190","EPOCH":"2022-03-21T22:00:00.999936","COUNTRY_CODE":"US","RCS_SIZE":"LARGE","SEMIMAJOR_AXIS":"6728.076","RA_OF_ASC_NODE":"53.5363","MEAN_MOTION":"15.73136748"}];
